LEMUR-2-ARIANNA         
1 62699U 25009CU  26157.50147981  .00011523  00000+0  87546-3 0  9998
2 62699  97.6878 238.9711 0003024 147.7834 212.3576 15.02323221 75956
LEMUR-2-ALISIA          
1 62706U 25009DB  26157.48144058  .00010769  00000+0  81239-3 0  9990
2 62706  97.6967 239.7242 0000731 190.8641 169.2568 15.02615589 98552
LEMUR-2-ROUNDTRIPPER    
1 62711U 25009DG  26157.51325065  .00012328  00000+0  90490-3 0  9991
2 62711  97.7231 240.2091 0004297 165.8436 194.2910 15.03609690 76021
LEMUR-2-MYNAMEISJEFF    
1 62712U 25009DH  26157.51174448  .00011973  00000+0  87872-3 0  9994
2 62712  97.7283 240.5819 0002564 196.4260 163.6882 15.03625946 76020
LEMUR-2-LEIA-PHILIP     
1 63246U 25052AN  26157.64449222  .00002181  00000+0  19318-3 0  9995
2 63246  97.6844  49.7721 0002096 258.3726 101.7261 14.97284545 67090
LEMUR-2-LIA-MARTIN      
1 63248U 25052AQ  26157.65277127  .00006601  00000+0  56792-3 0  9999
2 63248  97.6902  50.2394 0002196 177.9639 182.1593 14.97712436 67108
LEMUR-2-DELOITTE-1      
1 63259U 25052BB  26157.62775330  .00004444  00000+0  38591-3 0  9997
2 63259  97.6917  50.5442 0002273 117.2997 242.8457 14.97523139 67117
LEMUR-2-EMERSONROSE     
1 63261U 25052BD  26157.94711919  .00003963  00000+0  33177-3 0  9998
2 63261  97.6906  51.3978 0002583  75.6226 284.5283 14.99012412 67206
LEMUR-2-MARACHE-FRAN    
1 63262U 25052BE  26157.66246346  .00007452  00000+0  60368-3 0  9994
2 63262  97.6943  51.4102 0006301  56.4568 303.7257 14.99988393 67188
LEMUR-2-THEFALCONER     
1 63264U 25052BG  26157.65268344  .00005235  00000+0  45609-3 0  9995
2 63264  97.6873  50.1996 0003597  63.4166 296.7425 14.97317034 67112
LEMUR-2-UNTITLED-SC     
1 63351U 25061A   26157.64228326  .00004050  00000+0  22983-3 0  9991
2 63351  97.5632 133.0820 0017189 304.8172  55.1441 15.13399649 65999
LEMUR-2-ESPERANZA       
1 63352U 25061B   26157.75229941  .00004699  00000+0  26543-3 0  9993
2 63352  97.5640 133.2822 0016865 303.7820  56.1804 15.13493751 66018
LEMUR-2-KREMPEL-BRO2    
1 63353U 25061C   26157.65008210  .00004411  00000+0  24634-3 0  9998
2 63353  97.5689 133.7004 0017571 295.8751  64.0669 15.13927449 66011
LEMUR-2-THERMORAPTOR    
1 63354U 25061D   26157.17005339  .00004837  00000+0  26919-3 0  9995
2 63354  97.5693 133.2970 0017353 296.5843  63.3609 15.14001058 65949
LEMUR-2-NEUROSPICY      
1 63355U 25061E   26157.73734432  .00005157  00000+0  28602-3 0  9998
2 63355  97.5621 133.4953 0015215 298.8360  61.1344 15.14121014 66036
LEMUR-2-TILLINFINITY    
1 63356U 25061F   26157.64452033  .00004372  00000+0  23900-3 0  9997
2 63356  97.5606 133.6862 0016253 285.7482  74.1957 15.14706331 66040
LEMUR-2-KREMPEL-BRO1    
1 63357U 25061G   26157.68270911  .00005151  00000+0  28240-3 0  9993
2 63357  97.5607 133.6432 0016970 286.8150  73.1220 15.14511994 66046
LEMUR-2-LANGER2SPACE    
1 63358U 25061H   26157.70711618  .00004154  00000+0  23059-3 0  9996
2 63358  97.5612 133.4855 0015026 297.0668  62.9030 15.14208858 66035
LEMUR-2-BALTO           
1 63395U 25052BH  26157.64701717  .00006799  00000+0  55146-3 0  9998
2 63395  97.6877  51.3812 0006515  84.0846 276.1120 14.99971511 67187
LEMUR-2-KRISH           
1 64561U 25135AK  26157.57428907  .00006201  00000+0  55630-3 0  9991
2 64561  97.7727 272.5262 0001128 103.2930 256.8417 14.96106318 52334
LEMUR-2-HUBBLE-4        
1 64565U 25135AP  26157.61542323  .00001767  00000+0  17466-3 0  9996
2 64565  97.7688 271.6508 0001770   3.7631 356.3601 14.93168483 52296
LEMUR-2-SEJONG-2        
1 64586U 25135BL  26157.94211766  .00005884  00000+0  52118-3 0  9996
2 64586  97.7683 273.0347 0004656  23.7828 336.3608 14.96618375 52419
LEMUR-2-HUBBLE-5        
1 64840U 25135BT  26157.57612330  .00001638  00000+0  15856-3 0  9991
2 64840  97.7708 272.2283 0005969  28.3926 331.7618 14.94102503 52327
LEMUR-2-KARENDARRELL    
1 64841U 25135BU  26157.57852494  .00010168  00000+0  82207-3 0  9991
2 64841  97.7674 273.8067 0009021 243.4518 116.5781 14.99957693 52421
LEMUR-2-LUCILLE-ROSE    
1 65403U 25135BV  26156.88555324  .00009851  00000+0  79533-3 0  9996
2 65403  97.7773 273.1201 0010649 327.0038  33.0519 15.00006001 46946
LEMUR-2-AFFIE-WAUWIE    
1 66295U 25248C   26156.34516480  .00012446  00000+0  47373-3 0  9993
2 66295  45.3864 179.1302 0009103   8.2322 351.8715 15.26809642 32786
LEMUR-2-DEANANDMAEVE    
1 66678U 25276N   26157.45011831  .00008600  00000+0  40674-3 0  9996
2 66678  97.4208 231.1049 0006706  49.1401 311.0414 15.19599967 28783
LEMUR-2-STAS-GORBUK     
1 66686U 25276W   26157.65979195  .00006764  00000+0  32377-3 0  9993
2 66686  97.4244 231.3670 0006156  48.6160 311.5603 15.19268703 28819
LEMUR-2-TEODOR          
1 66768U 25276DG  26157.65509887  .00006575  00000+0  30010-3 0  9993
2 66768  97.4148 231.5855 0001816 124.2674 235.8734 15.20935246 28840
LEMUR-2-LAILA           
1 66776U 25276DQ  26157.43319580  .00008014  00000+0  36279-3 0  9990
2 66776  97.4170 231.4809 0001472 147.8107 212.3219 15.21152512 28815
