OBJECT_NAME,OBJECT_ID,EPOCH,MEAN_MOTION,ECCENTRICITY,INCLINATION,RA_OF_ASC_NODE,ARG_OF_PERICENTER,MEAN_ANOMALY,EPHEMERIS_TYPE,CLASSIFICATION_TYPE,NORAD_CAT_ID,ELEMENT_SET_NO,REV_AT_EPOCH,BSTAR,MEAN_MOTION_DOT,MEAN_MOTION_DDOT
LEMUR-2-ARIANNA,2025-009CU,2026-06-06T12:02:07.855584,15.02323221,.00030243,97.6878,238.9711,147.7834,212.3576,0,U,62699,999,7595,.87545699E-3,.11523E-3,0
LEMUR-2-ALISIA,2025-009DB,2026-06-06T11:33:16.466112,15.02615589,.00007317,97.6967,239.7242,190.8641,169.2568,0,U,62706,999,9855,.81238815E-3,.10769E-3,0
LEMUR-2-ROUNDTRIPPER,2025-009DG,2026-06-06T12:19:04.856160,15.03609690,.00042978,97.7231,240.2091,165.8436,194.2910,0,U,62711,999,7602,.90490045E-3,.12328E-3,0
LEMUR-2-MYNAMEISJEFF,2025-009DH,2026-06-06T12:16:54.723072,15.03625946,.00025646,97.7283,240.5819,196.4260,163.6882,0,U,62712,999,7602,.87871936E-3,.11973E-3,0
LEMUR-2-LEIA-PHILIP,2025-052AN,2026-06-06T15:28:04.127808,14.97284545,.00020962,97.6844,49.7721,258.3726,101.7261,0,U,63246,999,6709,.19317537E-3,.2181E-4,0
LEMUR-2-LIA-MARTIN,2025-052AQ,2026-06-06T15:39:59.437728,14.97712436,.0002196,97.6902,50.2394,177.9639,182.1593,0,U,63248,999,6710,.56792351E-3,.6601E-4,0
LEMUR-2-DELOITTE-1,2025-052BB,2026-06-06T15:03:57.885120,14.97523139,.00022739,97.6917,50.5442,117.2997,242.8457,0,U,63259,999,6711,.38591201E-3,.4444E-4,0
LEMUR-2-EMERSONROSE,2025-052BD,2026-06-06T22:43:51.098016,14.99012412,.0002583,97.6906,51.3978,75.6226,284.5283,0,U,63261,999,6720,.3317741E-3,.3963E-4,0
LEMUR-2-MARACHE-FRAN,2025-052BE,2026-06-06T15:53:56.842944,14.99988393,.00063016,97.6943,51.4102,56.4568,303.7257,0,U,63262,999,6718,.60367869E-3,.7452E-4,0
LEMUR-2-THEFALCONER,2025-052BG,2026-06-06T15:39:51.849216,14.97317034,.00035975,97.6873,50.1996,63.4166,296.7425,0,U,63264,999,6711,.45608583E-3,.5235E-4,0
LEMUR-2-UNTITLED-SC,2025-061A,2026-06-06T15:24:53.273664,15.13399649,.00171892,97.5632,133.0820,304.8172,55.1441,0,U,63351,999,6599,.22982632E-3,.405E-4,0
LEMUR-2-ESPERANZA,2025-061B,2026-06-06T18:03:18.669024,15.13493751,.00168655,97.5640,133.2822,303.7820,56.1804,0,U,63352,999,6601,.26542661E-3,.4699E-4,0
LEMUR-2-KREMPEL-BRO2,2025-061C,2026-06-06T15:36:07.093440,15.13927449,.00175713,97.5689,133.7004,295.8751,64.0669,0,U,63353,999,6601,.24633812E-3,.4411E-4,0
LEMUR-2-THERMORAPTOR,2025-061D,2026-06-06T04:04:52.612896,15.14001058,.0017353,97.5693,133.2970,296.5843,63.3609,0,U,63354,999,6594,.26919E-3,.4837E-4,0
LEMUR-2-NEUROSPICY,2025-061E,2026-06-06T17:41:46.549248,15.14121014,.00152153,97.5621,133.4953,298.8360,61.1344,0,U,63355,999,6603,.28601878E-3,.5157E-4,0
LEMUR-2-TILLINFINITY,2025-061F,2026-06-06T15:28:06.556512,15.14706331,.00162536,97.5606,133.6862,285.7482,74.1957,0,U,63356,999,6604,.23900063E-3,.4372E-4,0
LEMUR-2-KREMPEL-BRO1,2025-061G,2026-06-06T16:23:06.067104,15.14511994,.00169703,97.5607,133.6432,286.8150,73.1220,0,U,63357,999,6604,.28239953E-3,.5151E-4,0
LEMUR-2-LANGER2SPACE,2025-061H,2026-06-06T16:58:14.837952,15.14208858,.00150262,97.5612,133.4855,297.0668,62.9030,0,U,63358,999,6603,.23058819E-3,.4154E-4,0
LEMUR-2-BALTO,2025-052BH,2026-06-06T15:31:42.283488,14.99971511,.00065154,97.6877,51.3812,84.0846,276.1120,0,U,63395,999,6718,.55145668E-3,.6799E-4,0
LEMUR-2-KRISH,2025-135AK,2026-06-06T13:46:58.575648,14.96106318,.0001128,97.7727,272.5262,103.2930,256.8417,0,U,64561,999,5233,.5563E-3,.6201E-4,0
LEMUR-2-HUBBLE-4,2025-135AP,2026-06-06T14:46:12.567072,14.93168483,.000177,97.7688,271.6508,3.7631,356.3601,0,U,64565,999,5229,.17466E-3,.1767E-4,0
LEMUR-2-SEJONG-2,2025-135BL,2026-06-06T22:36:38.965824,14.96618375,.00046563,97.7683,273.0347,23.7828,336.3608,0,U,64586,999,5241,.5211752E-3,.5884E-4,0
LEMUR-2-HUBBLE-5,2025-135BT,2026-06-06T13:49:37.053120,14.94102503,.0005969,97.7708,272.2283,28.3926,331.7618,0,U,64840,999,5232,.15856E-3,.1638E-4,0
LEMUR-2-KARENDARRELL,2025-135BU,2026-06-06T13:53:04.554816,14.99957693,.0009021,97.7674,273.8067,243.4518,116.5781,0,U,64841,999,5242,.82207E-3,.10168E-3,0
LEMUR-2-LUCILLE-ROSE,2025-135BV,2026-06-05T21:15:11.799936,15.00006001,.00106491,97.7773,273.1201,327.0038,33.0519,0,U,65403,999,4694,.79533409E-3,.9851E-4,0
LEMUR-2-AFFIE-WAUWIE,2025-248C,2026-06-05T08:17:02.238720,15.26809642,.00091039,45.3864,179.1302,8.2322,351.8715,0,U,66295,999,3278,.47373351E-3,.12446E-3,0
LEMUR-2-DEANANDMAEVE,2025-276N,2026-06-06T10:48:10.221984,15.19599967,.00067064,97.4208,231.1049,49.1401,311.0414,0,U,66678,999,2878,.4067415E-3,.86E-4,0
LEMUR-2-STAS-GORBUK,2025-276W,2026-06-06T15:50:06.024480,15.19268703,.00061569,97.4244,231.3670,48.6160,311.5603,0,U,66686,999,2881,.32376656E-3,.6764E-4,0
LEMUR-2-TEODOR,2025-276DG,2026-06-06T15:43:20.542368,15.20935246,.00018164,97.4148,231.5855,124.2674,235.8734,0,U,66768,999,2884,.30010099E-3,.6575E-4,0
LEMUR-2-LAILA,2025-276DQ,2026-06-06T10:23:48.117120,15.21152512,.00014724,97.4170,231.4809,147.8107,212.3219,0,U,66776,999,2881,.36279352E-3,.8014E-4,0
